ORBCOMM FM115           
1 41186U 15081H   23251.07220976  .00000956  00000+0  23350-3 0  9996
2 41186  46.9982 235.1741 0001536 306.5003  53.5741 14.59871461412991
ORBCOMM FM108           
1 41187U 15081J   23251.18851935  .00000698  00000+0  19522-3 0  9993
2 41187  47.0044 281.2760 0003281 242.1222 117.9331 14.55872475412388
ORBCOMM FM117           
1 41188U 15081K   23250.53596113  .00000731  00000+0  20271-3 0  9997
2 41188  47.0005 283.3161 0004053 244.6366 115.4099 14.55867515412257
ORBCOMM FM116           
1 41189U 15081L   23250.73190919  .00000978  00000+0  25857-3 0  9992
2 41189  47.0040  12.1991 0002322 301.3720  58.6937 14.55858172411097
